start=new Date('2023-03-22T00:00:00.000Z').valueOf();
sats=[{"GP_ID":"228619482","REV_AT_EPOCH":"11268","TIME_SYSTEM":"UTC","OBJECT_NAME":"STARLINK-2346","PERIAPSIS":"545.673","EPOCH":"2023-03-21T19:00:54.997344","BSTAR":"0.00085736000000","RA_OF_ASC_NODE":"107.4198","TLE_LINE1":"1 47887U 21021AD  23080.79230321  .00012516  00000-0  85736-3 0  9997","MEAN_ELEMENT_THEORY":"SGP4","CLASSIFICATION_TYPE":"U","MEAN_ANOMALY":"271.1167","DECAY_DATE":null,"NORAD_CAT_ID":"47887","APOAPSIS":"548.678","ARG_OF_PERICENTER":"89.0070","EPHEMERIS_TYPE":"0","PERIOD":"95.591","FILE":"3866953","TLE_LINE2":"2 47887  53.0510 107.4198 0002170  89.0070 271.1167 15.06412437112680","REF_FRAME":"TEME","MEAN_MOTION_DOT":"0.00012516","SITE":"AFETR","INCLINATION":"53.0510","OBJECT_ID":"2021-021AD","MEAN_MOTION":"15.06412437","SEMIMAJOR_AXIS":"6925.310","LAUNCH_DATE":"2021-03-14","RCS_SIZE":"LARGE","COUNTRY_CODE":"US","OBJECT_TYPE":"PAYLOAD","CENTER_NAME":"EARTH","ECCENTRICITY":"0.00021700","MEAN_MOTION_DDOT":"0.0000000000000","ELEMENT_SET_NO":"999"},{"RCS_SIZE":"LARGE","LAUNCH_DATE":"2021-03-14","SEMIMAJOR_AXIS":"6925.277","MEAN_MOTION":"15.06423217","COUNTRY_CODE":"US","OBJECT_ID":"2021-021AE","INCLINATION":"53.0516","SITE":"AFETR","ECCENTRICITY":"0.00013410","ELEMENT_SET_NO":"999","MEAN_MOTION_DDOT":"0.0000000000000","CENTER_NAME":"EARTH","OBJECT_TYPE":"PAYLOAD","RA_OF_ASC_NODE":"99.1039","BSTAR":"0.00102610000000","EPOCH":"2023-03-21T10:00:50.743008","PERIAPSIS":"546.214","MEAN_ELEMENT_THEORY":"SGP4","TLE_LINE1":"1 47888U 21021AE  23080.41725397  .00015045  00000-0  10261-2 0  9999","REV_AT_EPOCH":"11277","GP_ID":"228587479","TIME_SYSTEM":"UTC","OBJECT_NAME":"STARLINK-2348","PERIOD":"95.591","EPHEMERIS_TYPE":"0","REF_FRAME":"TEME","MEAN_MOTION_DOT":"0.00015045","TLE_LINE2":"2 47888  53.0516  99.1039 0001341 108.4224 251.6911 15.06423217112772","FILE":"3866730","DECAY_DATE":null,"CLASSIFICATION_TYPE":"U","MEAN_ANOMALY":"251.6911","ARG_OF_PERICENTER":"108.4224","APOAPSIS":"548.071","NORAD_CAT_ID":"47888"},{"COUNTRY_CODE":"US","MEAN_MOTION":"15.06404470","LAUNCH_DATE":"2021-03-14","SEMIMAJOR_AXIS":"6925.335","RCS_SIZE":"LARGE","SITE":"AFETR","OBJECT_ID":"2021-021AF","INCLINATION":"53.0510","MEAN_MOTION_DDOT":"0.0000000000000","ELEMENT_SET_NO":"999","ECCENTRICITY":"0.00017880","OBJECT_TYPE":"PAYLOAD","CENTER_NAME":"EARTH","TLE_LINE1":"1 47889U 21021AF  23080.76004863  .00001386  00000-0  11194-3 0  9996","MEAN_ELEMENT_THEORY":"SGP4","EPOCH":"2023-03-21T18:14:28.201632","PERIAPSIS":"545.962","RA_OF_ASC_NODE":"97.5645","BSTAR":"0.00011194000000","OBJECT_NAME":"STARLINK-2349","TIME_SYSTEM":"UTC","GP_ID":"228618481","REV_AT_EPOCH":"11287","FILE":"3866953","TLE_LINE2":"2 47889  53.0510  97.5645 0001788  95.4803 264.6390 15.06404470112871","MEAN_MOTION_DOT":"0.00001386","REF_FRAME":"TEME","EPHEMERIS_TYPE":"0","PERIOD":"95.592","NORAD_CAT_ID":"47889","APOAPSIS":"548.438","ARG_OF_PERICENTER":"95.4803","MEAN_ANOMALY":"264.6390","CLASSIFICATION_TYPE":"U","DECAY_DATE":null},{"GP_ID":"228618731","REV_AT_EPOCH":"11284","TIME_SYSTEM":"UTC","OBJECT_NAME":"STARLINK-2351","BSTAR":"0.00058864000000","RA_OF_ASC_NODE":"107.5361","PERIAPSIS":"546.094","EPOCH":"2023-03-21T18:23:46.091616","MEAN_ELEMENT_THEORY":"SGP4","TLE_LINE1":"1 47891U 21021AH  23080.76650569  .00008502  00000-0  58864-3 0  9991","CLASSIFICATION_TYPE":"U","MEAN_ANOMALY":"280.5833","DECAY_DATE":null,"APOAPSIS":"548.205","ARG_OF_PERICENTER":"79.5328","NORAD_CAT_ID":"47891","PERIOD":"95.591","EPHEMERIS_TYPE":"0","MEAN_MOTION_DOT":"0.00008502","REF_FRAME":"TEME","FILE":"3866953","TLE_LINE2":"2 47891  53.0525 107.5361 0001524  79.5328 280.5833 15.06420906112848","INCLINATION":"53.0525","OBJECT_ID":"2021-021AH","SITE":"AFETR","LAUNCH_DATE":"2021-03-14","SEMIMAJOR_AXIS":"6925.284","RCS_SIZE":"LARGE","MEAN_MOTION":"15.06420906","COUNTRY_CODE":"US","CENTER_NAME":"EARTH","OBJECT_TYPE":"PAYLOAD","ECCENTRICITY":"0.00015240","ELEMENT_SET_NO":"999","MEAN_MOTION_DDOT":"0.0000000000000"},{"CLASSIFICATION_TYPE":"U","MEAN_ANOMALY":"296.4062","DECAY_DATE":null,"NORAD_CAT_ID":"47892","ARG_OF_PERICENTER":"63.7088","APOAPSIS":"514.648","PERIOD":"94.897","EPHEMERIS_TYPE":"0","FILE":"3866730","TLE_LINE2":"2 47892  53.0536  80.6478 0001518  63.7088 296.4062 15.17433683113021","MEAN_MOTION_DOT":"0.00032110","REF_FRAME":"TEME","GP_ID":"228587227","REV_AT_EPOCH":"11302","TIME_SYSTEM":"UTC","OBJECT_NAME":"STARLINK-2352","PERIAPSIS":"512.556","EPOCH":"2023-03-21T06:30:48.178080","BSTAR":"0.00159410000000","RA_OF_ASC_NODE":"80.6478","TLE_LINE1":"1 47892U 21021AJ  23080.27139095  .00032110  00000-0  15941-2 0  9994","MEAN_ELEMENT_THEORY":"SGP4","OBJECT_TYPE":"PAYLOAD","CENTER_NAME":"EARTH","ECCENTRICITY":"0.00015180","MEAN_MOTION_DDOT":"0.0000000000000","ELEMENT_SET_NO":"999","SITE":"AFETR","INCLINATION":"53.0536","OBJECT_ID":"2021-021AJ","MEAN_MOTION":"15.17433683","SEMIMAJOR_AXIS":"6891.737","LAUNCH_DATE":"2021-03-14","RCS_SIZE":"LARGE","COUNTRY_CODE":"US"},{"TLE_LINE1":"1 47894U 21021AL  23080.32511032  .00021002  00000-0  14237-2 0  9992","MEAN_ELEMENT_THEORY":"SGP4","PERIAPSIS":"546.318","EPOCH":"2023-03-21T07:48:09.531648","RA_OF_ASC_NODE":"99.5166","BSTAR":"0.00142370000000","OBJECT_NAME":"STARLINK-2354","TIME_SYSTEM":"UTC","REV_AT_EPOCH":"11270","GP_ID":"228587979","TLE_LINE2":"2 47894  53.0520  99.5166 0001183 101.2798 258.8324 15.06424833112705","FILE":"3866730","REF_FRAME":"TEME","MEAN_MOTION_DOT":"0.00021002","EPHEMERIS_TYPE":"0","PERIOD":"95.591","NORAD_CAT_ID":"47894","APOAPSIS":"547.957","ARG_OF_PERICENTER":"101.2798","DECAY_DATE":null,"CLASSIFICATION_TYPE":"U","MEAN_ANOMALY":"258.8324","COUNTRY_CODE":"US","MEAN_MOTION":"15.06424833","RCS_SIZE":"LARGE","LAUNCH_DATE":"2021-03-14","SEMIMAJOR_AXIS":"6925.272","SITE":"AFETR","OBJECT_ID":"2021-021AL","INCLINATION":"53.0520","MEAN_MOTION_DDOT":"0.0000000000000","ELEMENT_SET_NO":"999","ECCENTRICITY":"0.00011830","OBJECT_TYPE":"PAYLOAD","CENTER_NAME":"EARTH"},{"TIME_SYSTEM":"UTC","OBJECT_NAME":"STARLINK-2355","REV_AT_EPOCH":"11273","GP_ID":"228587730","MEAN_ELEMENT_THEORY":"SGP4","TLE_LINE1":"1 47895U 21021AM  23080.33617456  .00019752  00000-0  13404-2 0  9995","BSTAR":"0.00134040000000","RA_OF_ASC_NODE":"99.4723","EPOCH":"2023-03-21T08:04:05.481984","PERIAPSIS":"546.011","APOAPSIS":"548.281","ARG_OF_PERICENTER":"76.1347","NORAD_CAT_ID":"47895","DECAY_DATE":null,"CLASSIFICATION_TYPE":"U","MEAN_ANOMALY":"283.9825","REF_FRAME":"TEME","MEAN_MOTION_DOT":"0.00019752","TLE_LINE2":"2 47895  53.0545  99.4723 0001639  76.1347 283.9825 15.06422178112735","FILE":"3866730","EPHEMERIS_TYPE":"0","PERIOD":"95.591","INCLINATION":"53.0545","OBJECT_ID":"2021-021AM","SITE":"AFETR","COUNTRY_CODE":"US","RCS_SIZE":"LARGE","LAUNCH_DATE":"2021-03-14","SEMIMAJOR_AXIS":"6925.281","MEAN_MOTION":"15.06422178","CENTER_NAME":"EARTH","OBJECT_TYPE":"PAYLOAD","ELEMENT_SET_NO":"999","MEAN_MOTION_DDOT":"0.0000000000000","ECCENTRICITY":"0.00016390"},{"FILE":"3866953","TLE_LINE2":"2 47896  53.0524 112.4144 0002231  87.2794 272.8450 15.06402984112569","REF_FRAME":"TEME","MEAN_MOTION_DOT":"-0.00000286","EPHEMERIS_TYPE":"0","PERIOD":"95.592","NORAD_CAT_ID":"47896","APOAPSIS":"548.749","ARG_OF_PERICENTER":"87.2794","CLASSIFICATION_TYPE":"U","MEAN_ANOMALY":"272.8450","DECAY_DATE":null,"TLE_LINE1":"1 47896U 21021AN  23080.79368747 -.00000286  00000-0 -29659-6 0  9999","MEAN_ELEMENT_THEORY":"SGP4","EPOCH":"2023-03-21T19:02:54.597408","PERIAPSIS":"545.659","RA_OF_ASC_NODE":"112.4144","BSTAR":"-0.00000029659000","OBJECT_NAME":"STARLINK-2356","TIME_SYSTEM":"UTC","GP_ID":"228618232","REV_AT_EPOCH":"11256","MEAN_MOTION_DDOT":"0.0000000000000","ELEMENT_SET_NO":"999","ECCENTRICITY":"0.00022310","OBJECT_TYPE":"PAYLOAD","CENTER_NAME":"EARTH","COUNTRY_CODE":"US","MEAN_MOTION":"15.06402984","LAUNCH_DATE":"2021-03-14","SEMIMAJOR_AXIS":"6925.339","RCS_SIZE":"LARGE","SITE":"AFETR","INCLINATION":"53.0524","OBJECT_ID":"2021-021AN"},{"NORAD_CAT_ID":"47897","APOAPSIS":"548.226","ARG_OF_PERICENTER":"71.9552","DECAY_DATE":null,"MEAN_ANOMALY":"288.1607","CLASSIFICATION_TYPE":"U","TLE_LINE2":"2 47897  53.0521  99.7699 0001569  71.9552 288.1607 15.06424228112754","FILE":"3866730","MEAN_MOTION_DOT":"0.00019635","REF_FRAME":"TEME","EPHEMERIS_TYPE":"0","PERIOD":"95.591","TIME_SYSTEM":"UTC","OBJECT_NAME":"STARLINK-2357","REV_AT_EPOCH":"11275","GP_ID":"228586728","TLE_LINE1":"1 47897U 21021AP  23080.26887496  .00019635  00000-0  13325-2 0  9994","MEAN_ELEMENT_THEORY":"SGP4","EPOCH":"2023-03-21T06:27:10.796544","PERIAPSIS":"546.053","RA_OF_ASC_NODE":"99.7699","BSTAR":"0.00133250000000","OBJECT_TYPE":"PAYLOAD","CENTER_NAME":"EARTH","MEAN_MOTION_DDOT":"0.0000000000000","ELEMENT_SET_NO":"999","ECCENTRICITY":"0.00015690","SITE":"AFETR","INCLINATION":"53.0521","OBJECT_ID":"2021-021AP","COUNTRY_CODE":"US","MEAN_MOTION":"15.06424228","RCS_SIZE":"LARGE","SEMIMAJOR_AXIS":"6925.274","LAUNCH_DATE":"2021-03-14"},{"CLASSIFICATION_TYPE":"U","MEAN_ANOMALY":"276.5816","DECAY_DATE":null,"APOAPSIS":"548.073","ARG_OF_PERICENTER":"83.5327","NORAD_CAT_ID":"47898","EPHEMERIS_TYPE":"0","PERIOD":"95.590","REF_FRAME":"TEME","MEAN_MOTION_DOT":"0.00016718","FILE":"3866730","TLE_LINE2":"2 47898  53.0515  99.5008 0001356  83.5327 276.5816 15.06425980112707","GP_ID":"228587480","REV_AT_EPOCH":"11270","TIME_SYSTEM":"UTC","OBJECT_NAME":"STARLINK-2358","RA_OF_ASC_NODE":"99.5008","BSTAR":"0.00113780000000","EPOCH":"2023-03-21T07:53:28.186080","PERIAPSIS":"546.195","MEAN_ELEMENT_THEORY":"SGP4","TLE_LINE1":"1 47898U 21021AQ  23080.32879845  .00016718  00000-0  11378-2 0  9996","CENTER_NAME":"EARTH","OBJECT_TYPE":"PAYLOAD","ECCENTRICITY":"0.00013560","ELEMENT_SET_NO":"999","MEAN_MOTION_DDOT":"0.0000000000000","INCLINATION":"53.0515","OBJECT_ID":"2021-021AQ","SITE":"AFETR","LAUNCH_DATE":"2021-03-14","SEMIMAJOR_AXIS":"6925.269","RCS_SIZE":"LARGE","MEAN_MOTION":"15.06425980","COUNTRY_CODE":"US"}];
